[{"OBJECT_NAME":"STARLINK-5020","OBJECT_ID":"2023-015K","EPOCH":"2026-03-09T10:15:17.646912","MEAN_MOTION":15.02541076,"ECCENTRICITY":0.0001236,"INCLINATION":43.0042,"RA_OF_ASC_NODE":327.4906,"ARG_OF_PERICENTER":263.9937,"MEAN_ANOMALY":96.0765,"EPHEMERIS_TYPE":0,"CLASSIFICATION_TYPE":"U","NORAD_CAT_ID":55458,"ELEMENT_SET_NO":999,"REV_AT_EPOCH":17071,"BSTAR":-0.0002408723,"MEAN_MOTION_DOT":-3.456e-5,"MEAN_MOTION_DDOT":0},{"OBJECT_NAME":"OBJECT A","OBJECT_ID":"2025-313A","EPOCH":"2026-03-09T21:22:42.572064","MEAN_MOTION":14.66981537,"ECCENTRICITY":0.02771301,"INCLINATION":97.5525,"RA_OF_ASC_NODE":140.9497,"ARG_OF_PERICENTER":295.9559,"MEAN_ANOMALY":61.3334,"EPHEMERIS_TYPE":0,"CLASSIFICATION_TYPE":"U","NORAD_CAT_ID":67248,"ELEMENT_SET_NO":999,"REV_AT_EPOCH":1046,"BSTAR":0.0001505143,"MEAN_MOTION_DOT":1.44e-5,"MEAN_MOTION_DDOT":0}]
